<?xml version="1.0" encoding="UTF-8"?>
<ndm xmlns:xsi="http://www.w3.org/2001/XMLSchema-instance" xsi:noNamespaceSchemaLocation="https://sanaregistry.org/r/ndmxml_unqualified/ndmxml-2.0.0-master-2.0.xsd">
<omm id="CCSDS_OMM_VERS" version="2.0">
<header><CREATION_DATE/><ORIGINATOR/></header><body><segment><metadata><OBJECT_NAME>EUTELSAT 115 WEST B</OBJECT_NAME><OBJECT_ID>2015-010B</OBJECT_ID><CENTER_NAME>EARTH</CENTER_NAME><REF_FRAME>TEME</REF_FRAME><TIME_SYSTEM>UTC</TIME_SYSTEM><MEAN_ELEMENT_THEORY>SGP4</MEAN_ELEMENT_THEORY></metadata><data><meanElements><EPOCH>2025-07-21T10:47:49.048800</EPOCH><MEAN_MOTION>1.00266194</MEAN_MOTION><ECCENTRICITY>.0000395</ECCENTRICITY><INCLINATION>0.0166</INCLINATION><RA_OF_ASC_NODE>149.0718</RA_OF_ASC_NODE><ARG_OF_PERICENTER>57.1116</ARG_OF_PERICENTER><MEAN_ANOMALY>140.3106</MEAN_ANOMALY></meanElements><tleParameters><EPHEMERIS_TYPE>0</EPHEMERIS_TYPE><CLASSIFICATION_TYPE>U</CLASSIFICATION_TYPE><NORAD_CAT_ID>40425</NORAD_CAT_ID><ELEMENT_SET_NO>999</ELEMENT_SET_NO><REV_AT_EPOCH>3811</REV_AT_EPOCH><BSTAR>0</BSTAR><MEAN_MOTION_DOT>-.27E-6</MEAN_MOTION_DOT><MEAN_MOTION_DDOT>0</MEAN_MOTION_DDOT></tleParameters></data></segment></body></omm>
<omm id="CCSDS_OMM_VERS" version="2.0">
<header><CREATION_DATE/><ORIGINATOR/></header><body><segment><metadata><OBJECT_NAME>EUTELSAT 8 WEST B</OBJECT_NAME><OBJECT_ID>2015-039B</OBJECT_ID><CENTER_NAME>EARTH</CENTER_NAME><REF_FRAME>TEME</REF_FRAME><TIME_SYSTEM>UTC</TIME_SYSTEM><MEAN_ELEMENT_THEORY>SGP4</MEAN_ELEMENT_THEORY></metadata><data><meanElements><EPOCH>2025-07-20T21:51:24.391008</EPOCH><MEAN_MOTION>1.00272146</MEAN_MOTION><ECCENTRICITY>.0003728</ECCENTRICITY><INCLINATION>0.0642</INCLINATION><RA_OF_ASC_NODE>14.9503</RA_OF_ASC_NODE><ARG_OF_PERICENTER>101.8992</ARG_OF_PERICENTER><MEAN_ANOMALY>141.9284</MEAN_ANOMALY></meanElements><tleParameters><EPHEMERIS_TYPE>0</EPHEMERIS_TYPE><CLASSIFICATION_TYPE>U</CLASSIFICATION_TYPE><NORAD_CAT_ID>40875</NORAD_CAT_ID><ELEMENT_SET_NO>999</ELEMENT_SET_NO><REV_AT_EPOCH>3633</REV_AT_EPOCH><BSTAR>0</BSTAR><MEAN_MOTION_DOT>-.66E-6</MEAN_MOTION_DOT><MEAN_MOTION_DDOT>0</MEAN_MOTION_DDOT></tleParameters></data></segment></body></omm>
<omm id="CCSDS_OMM_VERS" version="2.0">
<header><CREATION_DATE/><ORIGINATOR/></header><body><segment><metadata><OBJECT_NAME>EUTELSAT 9B</OBJECT_NAME><OBJECT_ID>2016-005A</OBJECT_ID><CENTER_NAME>EARTH</CENTER_NAME><REF_FRAME>TEME</REF_FRAME><TIME_SYSTEM>UTC</TIME_SYSTEM><MEAN_ELEMENT_THEORY>SGP4</MEAN_ELEMENT_THEORY></metadata><data><meanElements><EPOCH>2025-07-20T22:21:38.623392</EPOCH><MEAN_MOTION>1.00272088</MEAN_MOTION><ECCENTRICITY>.0001009</ECCENTRICITY><INCLINATION>0.0477</INCLINATION><RA_OF_ASC_NODE>70.3595</RA_OF_ASC_NODE><ARG_OF_PERICENTER>59.6454</ARG_OF_PERICENTER><MEAN_ANOMALY>153.3244</MEAN_ANOMALY></meanElements><tleParameters><EPHEMERIS_TYPE>0</EPHEMERIS_TYPE><CLASSIFICATION_TYPE>U</CLASSIFICATION_TYPE><NORAD_CAT_ID>41310</NORAD_CAT_ID><ELEMENT_SET_NO>999</ELEMENT_SET_NO><REV_AT_EPOCH>3479</REV_AT_EPOCH><BSTAR>0</BSTAR><MEAN_MOTION_DOT>.61E-6</MEAN_MOTION_DOT><MEAN_MOTION_DDOT>0</MEAN_MOTION_DDOT></tleParameters></data></segment></body></omm>
<omm id="CCSDS_OMM_VERS" version="2.0">
<header><CREATION_DATE/><ORIGINATOR/></header><body><segment><metadata><OBJECT_NAME>EUTELSAT 65 WEST A</OBJECT_NAME><OBJECT_ID>2016-014A</OBJECT_ID><CENTER_NAME>EARTH</CENTER_NAME><REF_FRAME>TEME</REF_FRAME><TIME_SYSTEM>UTC</TIME_SYSTEM><MEAN_ELEMENT_THEORY>SGP4</MEAN_ELEMENT_THEORY></metadata><data><meanElements><EPOCH>2025-07-21T04:26:16.808928</EPOCH><MEAN_MOTION>1.00272328</MEAN_MOTION><ECCENTRICITY>.0002219</ECCENTRICITY><INCLINATION>0.0593</INCLINATION><RA_OF_ASC_NODE>327.4579</RA_OF_ASC_NODE><ARG_OF_PERICENTER>154.2493</ARG_OF_PERICENTER><MEAN_ANOMALY>178.8486</MEAN_ANOMALY></meanElements><tleParameters><EPHEMERIS_TYPE>0</EPHEMERIS_TYPE><CLASSIFICATION_TYPE>U</CLASSIFICATION_TYPE><NORAD_CAT_ID>41382</NORAD_CAT_ID><ELEMENT_SET_NO>999</ELEMENT_SET_NO><REV_AT_EPOCH>3432</REV_AT_EPOCH><BSTAR>0</BSTAR><MEAN_MOTION_DOT>-.278E-5</MEAN_MOTION_DOT><MEAN_MOTION_DDOT>0</MEAN_MOTION_DDOT></tleParameters></data></segment></body></omm>
<omm id="CCSDS_OMM_VERS" version="2.0">
<header><CREATION_DATE/><ORIGINATOR/></header><body><segment><metadata><OBJECT_NAME>EUTELSAT 117 WEST B</OBJECT_NAME><OBJECT_ID>2016-038B</OBJECT_ID><CENTER_NAME>EARTH</CENTER_NAME><REF_FRAME>TEME</REF_FRAME><TIME_SYSTEM>UTC</TIME_SYSTEM><MEAN_ELEMENT_THEORY>SGP4</MEAN_ELEMENT_THEORY></metadata><data><meanElements><EPOCH>2025-07-21T10:43:17.236992</EPOCH><MEAN_MOTION>1.00264239</MEAN_MOTION><ECCENTRICITY>.0000298</ECCENTRICITY><INCLINATION>0.0071</INCLINATION><RA_OF_ASC_NODE>191.1961</RA_OF_ASC_NODE><ARG_OF_PERICENTER>193.5078</ARG_OF_PERICENTER><MEAN_ANOMALY>318.5617</MEAN_ANOMALY></meanElements><tleParameters><EPHEMERIS_TYPE>0</EPHEMERIS_TYPE><CLASSIFICATION_TYPE>U</CLASSIFICATION_TYPE><NORAD_CAT_ID>41589</NORAD_CAT_ID><ELEMENT_SET_NO>999</ELEMENT_SET_NO><REV_AT_EPOCH>3339</REV_AT_EPOCH><BSTAR>0</BSTAR><MEAN_MOTION_DOT>-.13E-6</MEAN_MOTION_DOT><MEAN_MOTION_DDOT>0</MEAN_MOTION_DDOT></tleParameters></data></segment></body></omm>
<omm id="CCSDS_OMM_VERS" version="2.0">
<header><CREATION_DATE/><ORIGINATOR/></header><body><segment><metadata><OBJECT_NAME>EUTELSAT 172B</OBJECT_NAME><OBJECT_ID>2017-029B</OBJECT_ID><CENTER_NAME>EARTH</CENTER_NAME><REF_FRAME>TEME</REF_FRAME><TIME_SYSTEM>UTC</TIME_SYSTEM><MEAN_ELEMENT_THEORY>SGP4</MEAN_ELEMENT_THEORY></metadata><data><meanElements><EPOCH>2025-07-21T02:08:30.521760</EPOCH><MEAN_MOTION>1.00271437</MEAN_MOTION><ECCENTRICITY>.0000317</ECCENTRICITY><INCLINATION>0.0208</INCLINATION><RA_OF_ASC_NODE>82.8207</RA_OF_ASC_NODE><ARG_OF_PERICENTER>170.9513</ARG_OF_PERICENTER><MEAN_ANOMALY>249.4610</MEAN_ANOMALY></meanElements><tleParameters><EPHEMERIS_TYPE>0</EPHEMERIS_TYPE><CLASSIFICATION_TYPE>U</CLASSIFICATION_TYPE><NORAD_CAT_ID>42741</NORAD_CAT_ID><ELEMENT_SET_NO>999</ELEMENT_SET_NO><REV_AT_EPOCH>3039</REV_AT_EPOCH><BSTAR>0</BSTAR><MEAN_MOTION_DOT>-.7E-7</MEAN_MOTION_DOT><MEAN_MOTION_DDOT>0</MEAN_MOTION_DDOT></tleParameters></data></segment></body></omm>
<omm id="CCSDS_OMM_VERS" version="2.0">
<header><CREATION_DATE/><ORIGINATOR/></header><body><segment><metadata><OBJECT_NAME>EUTELSAT 7C</OBJECT_NAME><OBJECT_ID>2019-034B</OBJECT_ID><CENTER_NAME>EARTH</CENTER_NAME><REF_FRAME>TEME</REF_FRAME><TIME_SYSTEM>UTC</TIME_SYSTEM><MEAN_ELEMENT_THEORY>SGP4</MEAN_ELEMENT_THEORY></metadata><data><meanElements><EPOCH>2025-07-21T03:04:02.865216</EPOCH><MEAN_MOTION>1.00270262</MEAN_MOTION><ECCENTRICITY>.000308</ECCENTRICITY><INCLINATION>0.0723</INCLINATION><RA_OF_ASC_NODE>193.5266</RA_OF_ASC_NODE><ARG_OF_PERICENTER>273.2257</ARG_OF_PERICENTER><MEAN_ANOMALY>245.3837</MEAN_ANOMALY></meanElements><tleParameters><EPHEMERIS_TYPE>0</EPHEMERIS_TYPE><CLASSIFICATION_TYPE>U</CLASSIFICATION_TYPE><NORAD_CAT_ID>44334</NORAD_CAT_ID><ELEMENT_SET_NO>999</ELEMENT_SET_NO><REV_AT_EPOCH>2281</REV_AT_EPOCH><BSTAR>0</BSTAR><MEAN_MOTION_DOT>.47E-6</MEAN_MOTION_DOT><MEAN_MOTION_DDOT>0</MEAN_MOTION_DDOT></tleParameters></data></segment></body></omm>
<omm id="CCSDS_OMM_VERS" version="2.0">
<header><CREATION_DATE/><ORIGINATOR/></header><body><segment><metadata><OBJECT_NAME>EUTELSAT 5 WEST B</OBJECT_NAME><OBJECT_ID>2019-067A</OBJECT_ID><CENTER_NAME>EARTH</CENTER_NAME><REF_FRAME>TEME</REF_FRAME><TIME_SYSTEM>UTC</TIME_SYSTEM><MEAN_ELEMENT_THEORY>SGP4</MEAN_ELEMENT_THEORY></metadata><data><meanElements><EPOCH>2025-07-21T04:43:30.158112</EPOCH><MEAN_MOTION>1.00271949</MEAN_MOTION><ECCENTRICITY>.0002945</ECCENTRICITY><INCLINATION>0.0848</INCLINATION><RA_OF_ASC_NODE>317.5554</RA_OF_ASC_NODE><ARG_OF_PERICENTER>166.1438</ARG_OF_PERICENTER><MEAN_ANOMALY>241.3704</MEAN_ANOMALY></meanElements><tleParameters><EPHEMERIS_TYPE>0</EPHEMERIS_TYPE><CLASSIFICATION_TYPE>U</CLASSIFICATION_TYPE><NORAD_CAT_ID>44624</NORAD_CAT_ID><ELEMENT_SET_NO>999</ELEMENT_SET_NO><REV_AT_EPOCH>2111</REV_AT_EPOCH><BSTAR>0</BSTAR><MEAN_MOTION_DOT>-.44E-6</MEAN_MOTION_DOT><MEAN_MOTION_DDOT>0</MEAN_MOTION_DDOT></tleParameters></data></segment></body></omm>

</ndm>
