EUTELSAT 115 WEST B     
1 40425U 15010B   25202.44987325 -.00000027  00000+0  00000+0 0  9993
2 40425   0.0166 149.0718 0000395  57.1116 140.3106  1.00266194 38115
EUTELSAT 8 WEST B       
1 40875U 15039B   25201.91069897 -.00000066  00000+0  00000+0 0  9992
2 40875   0.0642  14.9503 0003728 101.8992 141.9284  1.00272146 36337
EUTELSAT 9B             
1 41310U 16005A   25201.93169703  .00000061  00000+0  00000+0 0  9994
2 41310   0.0477  70.3595 0001009  59.6454 153.3244  1.00272088 34794
EUTELSAT 65 WEST A      
1 41382U 16014A   25202.18491677 -.00000278  00000+0  00000+0 0  9990
2 41382   0.0593 327.4579 0002219 154.2493 178.8486  1.00272328 34325
EUTELSAT 117 WEST B     
1 41589U 16038B   25202.44672728 -.00000013  00000+0  00000+0 0  9999
2 41589   0.0071 191.1961 0000298 193.5078 318.5617  1.00264239 33393
EUTELSAT 172B           
1 42741U 17029B   25202.08924215 -.00000007  00000+0  00000+0 0  9995
2 42741   0.0208  82.8207 0000317 170.9513 249.4610  1.00271437 30390
EUTELSAT 7C             
1 44334U 19034B   25202.12781094  .00000047  00000+0  00000+0 0  9997
2 44334   0.0723 193.5266 0003080 273.2257 245.3837  1.00270262 22818
EUTELSAT 5 WEST B       
1 44624U 19067A   25202.19687683 -.00000044  00000+0  00000+0 0  9999
2 44624   0.0848 317.5554 0002945 166.1438 241.3704  1.00271949 21110
